[{"OBJECT_NAME":"STARLINK-30494","OBJECT_ID":"2023-151G","EPOCH":"2026-03-09T08:39:06.366240","MEAN_MOTION":15.28417441,"ECCENTRICITY":0.00011553,"INCLINATION":43.0027,"RA_OF_ASC_NODE":192.4566,"ARG_OF_PERICENTER":241.5536,"MEAN_ANOMALY":118.52,"EPHEMERIS_TYPE":0,"CLASSIFICATION_TYPE":"U","NORAD_CAT_ID":57970,"ELEMENT_SET_NO":999,"REV_AT_EPOCH":13740,"BSTAR":-3.569111e-5,"MEAN_MOTION_DOT":-1.272e-5,"MEAN_MOTION_DDOT":0},{"OBJECT_NAME":"STARLINK-30868","OBJECT_ID":"2023-178S","EPOCH":"2026-03-09T23:30:53.047296","MEAN_MOTION":15.30178321,"ECCENTRICITY":0.00011085,"INCLINATION":53.162,"RA_OF_ASC_NODE":359.8803,"ARG_OF_PERICENTER":81.8324,"MEAN_ANOMALY":278.2802,"EPHEMERIS_TYPE":0,"CLASSIFICATION_TYPE":"U","NORAD_CAT_ID":58390,"ELEMENT_SET_NO":999,"REV_AT_EPOCH":12993,"BSTAR":-5.1827259e-5,"MEAN_MOTION_DOT":-1.893e-5,"MEAN_MOTION_DDOT":0}]
